start=new Date('2022-07-18T00:00:00.000Z').valueOf();
sats=[{"ARG_OF_PERICENTER":"76.2793","SEMIMAJOR_AXIS":"6917.966","DECAY_DATE":null,"MEAN_MOTION_DOT":"0.00035631","MEAN_MOTION_DDOT":"0.0000000000000","OBJECT_NAME":"STARLINK-3653","MEAN_ANOMALY":"218.6140","TIME_SYSTEM":"UTC","RCS_SIZE":"LARGE","FILE":"3516215","TLE_LINE2":"2 52000  53.2154 233.1751 0001002  76.2793 218.6140 15.08811964 21556","REV_AT_EPOCH":"2155","SITE":"AFETR","INCLINATION":"53.2154","PERIOD":"95.439","CENTER_NAME":"EARTH","MEAN_ELEMENT_THEORY":"SGP4","EPHEMERIS_TYPE":"0","REF_FRAME":"TEME","EPOCH":"2022-07-17T22:00:00.999936","CLASSIFICATION_TYPE":"U","PERIAPSIS":"539.138","MEAN_MOTION":"15.08811964","TLE_LINE1":"1 52000U 22025AW  22198.91667824  .00035631  00000-0  22473-2 0  9991","ELEMENT_SET_NO":"999","COUNTRY_CODE":"US","OBJECT_TYPE":"PAYLOAD","APOAPSIS":"540.524","NORAD_CAT_ID":"52000","LAUNCH_DATE":"2022-03-09","OBJECT_ID":"2022-025AW","ECCENTRICITY":"0.00010020","BSTAR":"0.00224730000000","GP_ID":"208312781","RA_OF_ASC_NODE":"233.1751"},{"RCS_SIZE":"LARGE","TIME_SYSTEM":"UTC","FILE":"3516387","TLE_LINE2":"2 52001  53.2155 233.1757 0001213  85.0487 195.0647 15.08824826  1308","REV_AT_EPOCH":"130","SITE":"AFETR","INCLINATION":"53.2155","PERIOD":"95.439","CENTER_NAME":"EARTH","MEAN_ELEMENT_THEORY":"SGP4","EPHEMERIS_TYPE":"0","REF_FRAME":"TEME","EPOCH":"2022-07-17T22:00:00.999936","CLASSIFICATION_TYPE":"U","PERIAPSIS":"538.953","ARG_OF_PERICENTER":"85.0487","SEMIMAJOR_AXIS":"6917.927","DECAY_DATE":null,"MEAN_MOTION_DOT":"0.00035148","MEAN_MOTION_DDOT":"0.0000000000000","OBJECT_NAME":"STARLINK-3659","MEAN_ANOMALY":"195.0647","APOAPSIS":"540.631","NORAD_CAT_ID":"52001","LAUNCH_DATE":"2022-03-09","OBJECT_ID":"2022-025AX","ECCENTRICITY":"0.00012130","GP_ID":"208339385","BSTAR":"0.00221640000000","RA_OF_ASC_NODE":"233.1757","MEAN_MOTION":"15.08824826","TLE_LINE1":"1 52001U 22025AX  22198.91667824  .00035148  00000-0  22164-2 0  9992","ELEMENT_SET_NO":"999","COUNTRY_CODE":"US","OBJECT_TYPE":"PAYLOAD"},{"MEAN_ANOMALY":"229.6959","OBJECT_NAME":"STARLINK-3668","MEAN_MOTION_DOT":"0.00035872","MEAN_MOTION_DDOT":"0.0000000000000","DECAY_DATE":null,"SEMIMAJOR_AXIS":"6917.983","ARG_OF_PERICENTER":"70.4657","CLASSIFICATION_TYPE":"U","PERIAPSIS":"538.980","EPOCH":"2022-07-17T22:00:00.999936","EPHEMERIS_TYPE":"0","REF_FRAME":"TEME","MEAN_ELEMENT_THEORY":"SGP4","PERIOD":"95.440","CENTER_NAME":"EARTH","INCLINATION":"53.2167","SITE":"AFETR","REV_AT_EPOCH":"130","TLE_LINE2":"2 52002  53.2167 233.1750 0001254  70.4657 229.6959 15.08806481  1304","FILE":"3516387","RCS_SIZE":"LARGE","TIME_SYSTEM":"UTC","OBJECT_TYPE":"PAYLOAD","COUNTRY_CODE":"US","ELEMENT_SET_NO":"999","TLE_LINE1":"1 52002U 22025AY  22198.91667824  .00035872  00000-0  22626-2 0  9990","MEAN_MOTION":"15.08806481","RA_OF_ASC_NODE":"233.1750","BSTAR":"0.00226260000000","GP_ID":"208340136","ECCENTRICITY":"0.00012540","OBJECT_ID":"2022-025AY","LAUNCH_DATE":"2022-03-09","NORAD_CAT_ID":"52002","APOAPSIS":"540.715"},{"MEAN_ANOMALY":"219.2482","OBJECT_NAME":"STARLINK-3654","MEAN_MOTION_DOT":"0.00029246","MEAN_MOTION_DDOT":"0.0000000000000","DECAY_DATE":null,"SEMIMAJOR_AXIS":"6917.963","ARG_OF_PERICENTER":"100.8359","CENTER_NAME":"EARTH","PERIOD":"95.439","SITE":"AFETR","INCLINATION":"53.2163","REV_AT_EPOCH":"130","TLE_LINE2":"2 52003  53.2163 233.1742 0001187 100.8359 219.2482 15.08813025  1302","FILE":"3516387","TIME_SYSTEM":"UTC","RCS_SIZE":"LARGE","CLASSIFICATION_TYPE":"U","PERIAPSIS":"539.007","EPOCH":"2022-07-17T22:00:00.999936","EPHEMERIS_TYPE":"0","REF_FRAME":"TEME","MEAN_ELEMENT_THEORY":"SGP4","ELEMENT_SET_NO":"999","TLE_LINE1":"1 52003U 22025AZ  22198.91667824  .00029246  00000-0  18494-2 0  9997","MEAN_MOTION":"15.08813025","OBJECT_TYPE":"PAYLOAD","COUNTRY_CODE":"US","ECCENTRICITY":"0.00011870","OBJECT_ID":"2022-025AZ","LAUNCH_DATE":"2022-03-09","NORAD_CAT_ID":"52003","APOAPSIS":"540.649","RA_OF_ASC_NODE":"233.1742","BSTAR":"0.00184940000000","GP_ID":"208340385"},{"SEMIMAJOR_AXIS":"6717.973","ARG_OF_PERICENTER":"27.9368","MEAN_ANOMALY":"301.9579","OBJECT_NAME":"STARLINK-3537","MEAN_MOTION_DDOT":"0.0000000000000","MEAN_MOTION_DOT":"-0.00011532","DECAY_DATE":null,"FILE":"3516387","RCS_SIZE":"LARGE","TIME_SYSTEM":"UTC","CENTER_NAME":"EARTH","PERIOD":"91.331","SITE":"AFETR","INCLINATION":"53.2045","REV_AT_EPOCH":"130","TLE_LINE2":"2 52088  53.2045 258.6295 0001886  27.9368 301.9579 15.76686651  1308","MEAN_ELEMENT_THEORY":"SGP4","PERIAPSIS":"338.571","CLASSIFICATION_TYPE":"U","EPOCH":"2022-07-17T22:00:00.999936","EPHEMERIS_TYPE":"0","REF_FRAME":"TEME","ELEMENT_SET_NO":"999","TLE_LINE1":"1 52088U 22029A   22198.91667824 -.00011532  00000-0 -66674-4 0  9990","MEAN_MOTION":"15.76686651","COUNTRY_CODE":"US","OBJECT_TYPE":"PAYLOAD","NORAD_CAT_ID":"52088","APOAPSIS":"341.105","ECCENTRICITY":"0.00018860","OBJECT_ID":"2022-029A","LAUNCH_DATE":"2022-03-19","BSTAR":"-0.00006667400000","GP_ID":"208341134","RA_OF_ASC_NODE":"258.6295"},{"BSTAR":"-0.00531140000000","GP_ID":"208339393","RA_OF_ASC_NODE":"303.1849","NORAD_CAT_ID":"52089","APOAPSIS":"540.840","ECCENTRICITY":"0.00016640","OBJECT_ID":"2022-029B","LAUNCH_DATE":"2022-03-19","COUNTRY_CODE":"US","OBJECT_TYPE":"PAYLOAD","ELEMENT_SET_NO":"999","TLE_LINE1":"1 52089U 22029B   22198.91667824 -.00083879  00000-0 -53114-2 0  9997","MEAN_MOTION":"15.08858363","MEAN_ELEMENT_THEORY":"SGP4","CLASSIFICATION_TYPE":"U","PERIAPSIS":"538.538","EPOCH":"2022-07-17T22:00:00.999936","EPHEMERIS_TYPE":"0","REF_FRAME":"TEME","FILE":"3516387","RCS_SIZE":"LARGE","TIME_SYSTEM":"UTC","PERIOD":"95.436","CENTER_NAME":"EARTH","SITE":"AFETR","INCLINATION":"53.2151","REV_AT_EPOCH":"130","TLE_LINE2":"2 52089  53.2151 303.1849 0001664  54.0519 241.1195 15.08858363  1306","SEMIMAJOR_AXIS":"6917.824","ARG_OF_PERICENTER":"54.0519","MEAN_ANOMALY":"241.1195","OBJECT_NAME":"STARLINK-3722","MEAN_MOTION_DOT":"-0.00083879","MEAN_MOTION_DDOT":"0.0000000000000","DECAY_DATE":null},{"TLE_LINE1":"1 52090U 22029C   22198.91667824 -.00087496  00000-0 -55438-2 0  9999","MEAN_MOTION":"15.08859644","ELEMENT_SET_NO":"999","OBJECT_TYPE":"PAYLOAD","COUNTRY_CODE":"US","OBJECT_ID":"2022-029C","LAUNCH_DATE":"2022-03-19","ECCENTRICITY":"0.00018210","APOAPSIS":"540.945","NORAD_CAT_ID":"52090","RA_OF_ASC_NODE":"303.1891","BSTAR":"-0.00554380000000","GP_ID":"208340144","MEAN_MOTION_DOT":"-0.00087496","MEAN_MOTION_DDOT":"0.0000000000000","DECAY_DATE":null,"MEAN_ANOMALY":"313.4381","OBJECT_NAME":"STARLINK-3712","SEMIMAJOR_AXIS":"6917.820","ARG_OF_PERICENTER":"41.7003","REV_AT_EPOCH":"130","TLE_LINE2":"2 52090  53.2163 303.1891 0001821  41.7003 313.4381 15.08859644  1307","CENTER_NAME":"EARTH","PERIOD":"95.436","INCLINATION":"53.2163","SITE":"AFETR","FILE":"3516387","TIME_SYSTEM":"UTC","RCS_SIZE":"LARGE","EPOCH":"2022-07-17T22:00:00.999936","REF_FRAME":"TEME","EPHEMERIS_TYPE":"0","CLASSIFICATION_TYPE":"U","PERIAPSIS":"538.426","MEAN_ELEMENT_THEORY":"SGP4"},{"APOAPSIS":"540.801","NORAD_CAT_ID":"52091","OBJECT_ID":"2022-029D","LAUNCH_DATE":"2022-03-19","ECCENTRICITY":"0.00015990","GP_ID":"208340393","BSTAR":"-0.00349250000000","RA_OF_ASC_NODE":"303.1873","TLE_LINE1":"1 52091U 22029D   22198.91667824 -.00055469  00000-0 -34925-2 0  9993","MEAN_MOTION":"15.08856543","ELEMENT_SET_NO":"999","COUNTRY_CODE":"US","OBJECT_TYPE":"PAYLOAD","FILE":"3516387","TIME_SYSTEM":"UTC","RCS_SIZE":"LARGE","REV_AT_EPOCH":"130","TLE_LINE2":"2 52091  53.2157 303.1873 0001599  50.1482 264.9791 15.08856543  1308","CENTER_NAME":"EARTH","PERIOD":"95.437","INCLINATION":"53.2157","SITE":"AFETR","MEAN_ELEMENT_THEORY":"SGP4","EPOCH":"2022-07-17T22:00:00.999936","REF_FRAME":"TEME","EPHEMERIS_TYPE":"0","PERIAPSIS":"538.589","CLASSIFICATION_TYPE":"U","SEMIMAJOR_AXIS":"6917.830","ARG_OF_PERICENTER":"50.1482","MEAN_MOTION_DOT":"-0.00055469","MEAN_MOTION_DDOT":"0.0000000000000","DECAY_DATE":null,"MEAN_ANOMALY":"264.9791","OBJECT_NAME":"STARLINK-3713"},{"REV_AT_EPOCH":"130","TLE_LINE2":"2 52092  53.2165 303.1909 0001464  51.9712 283.1768 15.08847288  1307","CENTER_NAME":"EARTH","PERIOD":"95.437","SITE":"AFETR","INCLINATION":"53.2165","FILE":"3516387","RCS_SIZE":"LARGE","TIME_SYSTEM":"UTC","EPOCH":"2022-07-17T22:00:00.999936","REF_FRAME":"TEME","EPHEMERIS_TYPE":"0","PERIAPSIS":"538.710","CLASSIFICATION_TYPE":"U","MEAN_ELEMENT_THEORY":"SGP4","MEAN_MOTION_DOT":"-0.00064037","MEAN_MOTION_DDOT":"0.0000000000000","DECAY_DATE":null,"MEAN_ANOMALY":"283.1768","OBJECT_NAME":"STARLINK-3716","SEMIMAJOR_AXIS":"6917.858","ARG_OF_PERICENTER":"51.9712","OBJECT_ID":"2022-029E","LAUNCH_DATE":"2022-03-19","ECCENTRICITY":"0.00014640","APOAPSIS":"540.736","NORAD_CAT_ID":"52092","RA_OF_ASC_NODE":"303.1909","BSTAR":"-0.00404070000000","GP_ID":"208341136","TLE_LINE1":"1 52092U 22029E   22198.91667824 -.00064037  00000-0 -40407-2 0  9997","MEAN_MOTION":"15.08847288","ELEMENT_SET_NO":"999","OBJECT_TYPE":"PAYLOAD","COUNTRY_CODE":"US"},{"EPOCH":"2022-07-17T22:00:00.999936","EPHEMERIS_TYPE":"0","REF_FRAME":"TEME","CLASSIFICATION_TYPE":"U","PERIAPSIS":"538.889","MEAN_ELEMENT_THEORY":"SGP4","REV_AT_EPOCH":"130","TLE_LINE2":"2 52093  53.2192 303.1930 0001261  70.0894 325.0393 15.08834668  1308","CENTER_NAME":"EARTH","PERIOD":"95.438","INCLINATION":"53.2192","SITE":"AFETR","FILE":"3516387","TIME_SYSTEM":"UTC","RCS_SIZE":"LARGE","MEAN_MOTION_DOT":"-0.00038118","MEAN_MOTION_DDOT":"0.0000000000000","DECAY_DATE":null,"MEAN_ANOMALY":"325.0393","OBJECT_NAME":"STARLINK-3673","SEMIMAJOR_AXIS":"6917.897","ARG_OF_PERICENTER":"70.0894","RA_OF_ASC_NODE":"303.1930","BSTAR":"-0.00239000000000","GP_ID":"208341147","OBJECT_ID":"2022-029F","LAUNCH_DATE":"2022-03-19","ECCENTRICITY":"0.00012610","APOAPSIS":"540.634","NORAD_CAT_ID":"52093","OBJECT_TYPE":"PAYLOAD","COUNTRY_CODE":"US","TLE_LINE1":"1 52093U 22029F   22198.91667824 -.00038118  00000-0 -23900-2 0  9998","MEAN_MOTION":"15.08834668","ELEMENT_SET_NO":"999"}];
